[{"OBJECT_NAME":"FLOCK 4Q-36","OBJECT_ID":"2023-174U","EPOCH":"2026-03-09T19:16:39.542880","MEAN_MOTION":15.51175537,"ECCENTRICITY":0.00077513,"INCLINATION":97.3882,"RA_OF_ASC_NODE":158.0764,"ARG_OF_PERICENTER":145.8203,"MEAN_ANOMALY":214.355,"EPHEMERIS_TYPE":0,"CLASSIFICATION_TYPE":"U","NORAD_CAT_ID":58274,"ELEMENT_SET_NO":999,"REV_AT_EPOCH":13039,"BSTAR":0.00046936157,"MEAN_MOTION_DOT":0.00027409,"MEAN_MOTION_DDOT":0},{"OBJECT_NAME":"COSMOS 2251 DEB","OBJECT_ID":"1993-036TH","EPOCH":"2026-03-09T14:42:57.031776","MEAN_MOTION":15.49743704,"ECCENTRICITY":0.00117997,"INCLINATION":73.9793,"RA_OF_ASC_NODE":250.953,"ARG_OF_PERICENTER":35.5004,"MEAN_ANOMALY":324.6991,"EPHEMERIS_TYPE":0,"CLASSIFICATION_TYPE":"U","NORAD_CAT_ID":34464,"ELEMENT_SET_NO":999,"REV_AT_EPOCH":91174,"BSTAR":0.0042806749,"MEAN_MOTION_DOT":0.00246044,"MEAN_MOTION_DDOT":0}]
